{
    "links": {
        "self": "http://www.neowsapp.com/rest/v1/neo/3511361?api_key=iIulBulltgU6a56xZRHN4H3l9WmuAYTsLGpBGhQ2"
    },
    "id": "3511361",
    "neo_reference_id": "3511361",
    "name": "(2010 ES12)",
    "designation": "2010 ES12",
    "nasa_jpl_url": "http://ssd.jpl.nasa.gov/sbdb.cgi?sstr=3511361",
    "absolute_magnitude_h": 25.7,
    "estimated_diameter": {
        "kilometers": {
            "estimated_diameter_min": 0.0192555078,
            "estimated_diameter_max": 0.0430566244
        },
        "meters": {
            "estimated_diameter_min": 19.2555078188,
            "estimated_diameter_max": 43.0566244241
        },
        "miles": {
            "estimated_diameter_min": 0.0119648141,
            "estimated_diameter_max": 0.0267541378
        },
        "feet": {
            "estimated_diameter_min": 63.1742402722,
            "estimated_diameter_max": 141.2618956756
        }
    },
    "is_potentially_hazardous_asteroid": false,
    "close_approach_data": [
        {
            "close_approach_date": "2010-03-04",
            "close_approach_date_full": "2010-Mar-04 18:27",
            "epoch_date_close_approach": 1267727220000,
            "relative_velocity": {
                "kilometers_per_second": "13.9693224634",
                "kilometers_per_hour": "50289.560868249",
                "miles_per_hour": "31247.9774183851"
            },
            "miss_distance": {
                "astronomical": "0.0033617916",
                "lunar": "1.3077369324",
                "kilometers": "502916.862743892",
                "miles": "312498.0477820296"
            },
            "orbiting_body": "Earth"
        },
        {
            "close_approach_date": "2010-03-05",
            "close_approach_date_full": "2010-Mar-05 00:09",
            "epoch_date_close_approach": 1267747740000,
            "relative_velocity": {
                "kilometers_per_second": "14.5320986558",
                "kilometers_per_hour": "52315.5551608818",
                "miles_per_hour": "32506.8514831601"
            },
            "miss_distance": {
                "astronomical": "0.0042310093",
                "lunar": "1.6458626177",
                "kilometers": "632949.979230191",
                "miles": "393296.8796749958"
            },
            "orbiting_body": "Moon"
        }
    ],
    "orbital_data": {
        "orbit_id": "10",
        "orbit_determination_date": "2017-04-06 08:58:13",
        "first_observation_date": "2010-03-09",
        "last_observation_date": "2010-03-19",
        "data_arc_in_days": 10,
        "observations_used": 33,
        "orbit_uncertainty": "8",
        "minimum_orbit_intersection": ".00331877",
        "jupiter_tisserand_invariant": "3.178",
        "epoch_osculation": "2455270.5",
        "eccentricity": ".6551540147947617",
        "semi_major_axis": "2.423483351742056",
        "inclination": "2.049443754536383",
        "ascending_node_longitude": "158.5202622171563",
        "orbital_period": "1378.029414580069",
        "perihelion_distance": ".8357285040599826",
        "perihelion_argument": "312.4540194570008",
        "aphelion_distance": "4.01123819942413",
        "perihelion_time": "2455224.362378602935",
        "mean_anomaly": "12.05311260210282",
        "mean_motion": ".2612426093311687",
        "equinox": "J2000",
        "orbit_class": {
            "orbit_class_type": "APO",
            "orbit_class_description": "Near-Earth asteroid orbits which cross the Earth’s orbit similar to that of 1862 Apollo",
            "orbit_class_range": "a (semi-major axis) > 1.0 AU; q (perihelion) < 1.017 AU"
        }
    },
    "is_sentry_object": false
}